CS2                     
1 49262U 21088C   26068.73485932  .00018033  00000+0  56178-3 0  9999
2 49262  97.3928 134.2907 0011637  82.3491 277.9072 15.33255930245263
STARLINK-32293          
1 61526U 24183T   26068.46770164 -.00002615  00000+0 -76268-4 0  9993
2 61526  53.1615 143.8124 0001565  89.0500 271.0680 15.30172137 79612
